[{"OBJECT_NAME":"QIANFAN-18","OBJECT_ID":"2024-140T","EPOCH":"2026-03-09T21:16:21.087552","MEAN_MOTION":13.5100423,"ECCENTRICITY":0.00128145,"INCLINATION":88.9713,"RA_OF_ASC_NODE":289.957,"ARG_OF_PERICENTER":301.4475,"MEAN_ANOMALY":58.5423,"EPHEMERIS_TYPE":0,"CLASSIFICATION_TYPE":"U","NORAD_CAT_ID":60396,"ELEMENT_SET_NO":999,"REV_AT_EPOCH":7929,"BSTAR":8.6303486e-5,"MEAN_MOTION_DOT":6.8e-7,"MEAN_MOTION_DDOT":0},{"OBJECT_NAME":"TRANSIT 5E-3","OBJECT_ID":"1963-049C","EPOCH":"2026-03-09T23:11:34.065600","MEAN_MOTION":13.47660633,"ECCENTRICITY":0.0033818,"INCLINATION":89.9157,"RA_OF_ASC_NODE":71.1837,"ARG_OF_PERICENTER":177.2262,"MEAN_ANOMALY":240.1996,"EPHEMERIS_TYPE":0,"CLASSIFICATION_TYPE":"U","NORAD_CAT_ID":705,"ELEMENT_SET_NO":999,"REV_AT_EPOCH":5873,"BSTAR":0.00012942317,"MEAN_MOTION_DOT":8.9e-7,"MEAN_MOTION_DDOT":0}]
